HYPERFIELD-1A           
1 60562U 24149CY  26068.76488211  .00008569  00000+0  30052-3 0  9998
2 60562  97.3842 149.5066 0003865 313.7844  46.3076 15.29681349 86836
STARLINK-32799          
1 62847U 25019U   26068.43311070  .00021581  00000+0  79187-3 0  9996
2 62847  42.9994  90.2596 0000976 259.5578 100.5163 15.27563236 62217
